TDRS 3                  
1 19548U 88091B   23017.28284199 -.00000285  00000+0  00000+0 0  9993
2 19548  13.5579 349.6692 0040130 333.8484 205.9415  1.00268414112869
HST                     
1 20580U 90037B   23016.91160253  .00006300  00000+0  35038-3 0  9993
2 20580  28.4682 193.4154 0002333 174.5915 337.1607 15.11657307598530
TDRS 5                  
1 21639U 91054B   23016.70112894  .00000098  00000+0  00000+0 0  9999
2 21639  14.2200   2.9888 0027226 351.3305 206.3280  1.00275991115200
TDRS 6                  
1 22314U 93003B   23016.94298112 -.00000282  00000+0  00000+0 0  9996
2 22314  14.1434   6.2545 0007278 138.2506 264.9592  1.00279593109904
TDRS 7                  
1 23613U 95035B   23016.95081302 -.00000184  00000+0  00000+0 0  9999
2 23613  13.8944 356.9633 0025252  49.7162 136.2895  1.00266999100643
ISS (ZARYA)             
1 25544U 98067A   23017.68978009  .00020572  00000+0  36302-3 0  9992
2 25544  51.6437 353.9657 0004830 297.5015  56.1209 15.50340685378446
LANDSAT 7               
1 25682U 99020A   23017.55833616  .00000615  00000+0  13761-3 0  9995
2 25682  97.9515  62.2311 0001466  97.1176 263.0217 14.59883792263800
TERRA                   
1 25994U 99068A   23017.54443519  .00001005  00000+0  22374-3 0  9995
2 25994  98.1146  89.5467 0002045 143.9703 322.9118 14.58983831227813
TDRS 8                  
1 26388U 00034A   23017.09507101 -.00000221  00000+0  00000+0 0  9994
2 26388  10.7040  41.0711 0020221 327.9524 230.4442  1.00280015 82662
TIMED                   
1 26998U 01055B   23016.78598542  .00002348  00000+0  25280-3 0  9991
2 26998  74.0712 214.5187 0000874 323.6534  36.4588 14.89100426144750
TDRS 9                  
1 27389U 02011A   23017.06177398 -.00000151  00000+0  00000+0 0  9993
2 27389   9.5489  58.5717 0004642 190.8000 170.8409  0.99617557 77937
AQUA                    
1 27424U 02022A   23017.42977742  .00001993  00000+0  44775-3 0  9991
2 27424  98.2713 322.5639 0000667  63.4069  39.0031 14.57594248101397
TDRS 10                 
1 27566U 02055A   23016.82808479  .00000102  00000+0  00000+0 0  9997
2 27566   8.5936  48.7491 0006647 312.0613 242.1025  1.00271670 73719
SORCE                   
1 27651U 03004A   23017.11281993  .00005311  00000+0  54339-3 0  9991
2 27651  39.9948 103.9102 0021980 178.8077 181.2768 14.90703955 84973
AURA                    
1 28376U 04026A   23017.53960046  .00002056  00000+0  46642-3 0  9991
2 28376  98.2334 323.0377 0001322  88.4240 271.7110 14.57108662984444
SWIFT                   
1 28485U 04047A   23016.91288370  .00010629  00000+0  63801-3 0  9990
2 28485  20.5565 250.2309 0010146 127.0615 233.0748 15.08184277995796
THEMIS A                
1 30580U 07004A   23015.19971212 -.00000156  00000+0 -43796-1 0  9993
2 30580  12.3326 322.1142 8355259 210.3466 340.2794  0.87832653 54986
THEMIS D                
1 30797U 07004D   23015.06652822 -.00000054  00000+0  00000+0 0  9997
2 30797   8.3236 309.8097 8305814 226.0090 310.7158  0.87834825 54519
THEMIS E                
1 30798U 07004E   23016.35125369 -.00000042  00000+0  00000+0 0  9999
2 30798   9.5078 326.3205 8303159 211.5298 350.3060  0.87858981 54949
AIM                     
1 31304U 07015A   23017.54319826  .00025749  00000+0  11168-2 0  9990
2 31304  97.8629 310.3719 0004549  25.7442 334.4019 15.22331277863705
FGRST (GLAST)           
1 33053U 08029A   23017.45613937  .00004084  00000+0  20855-3 0  9992
2 33053  25.5815 147.1858 0012109 139.3813 220.7628 15.12952424806351
WISE                    
1 36119U 09071A   23016.82182788  .00017646  00000+0  49075-3 0  9994
2 36119  97.2179  52.1069 0000496 213.6679 146.4534 15.36901525728239
TDRS 11                 
1 39070U 13004A   23016.82747463  .00000102  00000+0  00000+0 0  9991
2 39070   2.7727 352.7514 0003736  41.9395 204.7427  1.00269391 34186
TDRS 12                 
1 39504U 14004A   23017.49140825 -.00000247  00000+0  00000+0 0  9998
2 39504   3.7002 351.4171 0000831 224.9834  36.1244  1.00276264 32947
GPM-CORE                
1 39574U 14009C   23016.89074014  .00024642  00000+0  34740-3 0  9995
2 39574  64.9969 181.8063 0009965 273.3836  86.6170 15.56522115504810
MMS 1                   
1 40482U 15011A   23013.71450568 -.00001179  00000+0  00000+0 0  9998
2 40482  29.4742  86.8642 8940508  72.8562  41.7625  0.28513859 13905
MMS 2                   
1 40483U 15011B   23013.72145013 -.00001179  00000+0  00000+0 0  9996
2 40483  29.4717  86.8702 8940093  72.8441  42.4927  0.28518660 13964
MMS 3                   
1 40484U 15011C   23013.73256124 -.00001179  00000+0  00000+0 0  9994
2 40484  29.4758  86.8634 8940352  72.8484  43.6446  0.28514404 13645
MMS 4                   
1 40485U 15011D   23013.72839457 -.00001179  00000+0  00000+0 0  9990
2 40485  29.4734  86.8522 8941073  72.8591  43.2088  0.28519154 13854
TDRS 13                 
1 42915U 17047A   23017.09216062 -.00000076  00000+0  00000+0 0  9991
2 42915   4.1887 335.7827 0013547 109.7232  52.2928  1.00270310 19877
JPSS-1                  
1 43013U 17073A   23017.56676113  .00000202  00000+0  11662-3 0  9999
2 43013  98.7392 317.9684 0001402 106.7774 253.3556 14.19546374267602
